M2 PATHFINDER           
1 45727U 20037E   26193.98130639  .00000905  00000+0  68591-4 0  9993
2 45727  97.8146  25.5047 0013089  69.3329 290.9298 15.04787964329372
NETSAT-4                
1 46504U 20068U   26193.97858387  .00013082  00000+0  28211-3 0  9991
2 46504  97.8603 204.3078 0004497 201.3286 158.7775 15.44709153319758
NETSAT-3                
1 46505U 20068V   26194.26363387  .00011177  00000+0  25092-3 0  9993
2 46505  97.8649 202.8011 0003560 219.4839 140.6148 15.43563557319707
NETSAT-1                
1 46506U 20068W   26193.95109643  .00008370  00000+0  24743-3 0  9995
2 46506  97.8748 196.4849 0002410 276.5907  83.5061 15.35213925319259
NETSAT-2                
1 46507U 20068X   26193.46346907  .00015171  00000+0  30146-3 0  9999
2 46507  97.8611 203.7420 0001783 220.9475 139.1640 15.47081469319644
GREENCUBE (IO-117)      
1 53109U 22080E   26193.70867104 -.00000003  00000+0  00000+0 0  9996
2 53109  70.1415 289.3709 0009030 284.1311  75.8345  6.42583319 93700
SITRO-AIS 5 (KATYS)     
1 57176U 23091L   26194.30020465  .00007011  00000+0  24344-3 0  9991
2 57176  97.5053 258.4560 0010835  19.1118 341.0526 15.30038609168332
SITRO-AIS 6 (CHIRKIN)   
1 57192U 23091AC  26194.27467539  .00005819  00000+0  22600-3 0  9999
2 57192  97.5061 257.4091 0011395  23.2308 336.9443 15.26415592168264
SITRO-AIS 8 (ANOKHIN)   
1 57193U 23091AD  26194.27067517  .00008740  00000+0  27781-3 0  9993
2 57193  97.5049 260.1233 0009718  15.2150 344.9382 15.32824366168443
SITRO-AIS 7 (FARTUSHNIY)
1 57194U 23091AE  26194.28325951  .00005422  00000+0  21286-3 0  9992
2 57194  97.5057 257.2289 0011342  24.4069 335.7704 15.26090323168254
SITRO-AIS 10 (BURDAEV)  
1 57199U 23091AK  26194.25521260  .00012531  00000+0  32036-3 0  9999
2 57199  97.5075 265.4363 0005020 349.5405  10.5735 15.39580598168775
SITRO-AIS 9 (SHCHUKIN)  
1 57201U 23091AM  26194.29010269  .00012429  00000+0  32310-3 0  9990
2 57201  97.5074 265.1814 0005292 349.7709  10.3427 15.39067128168760
SITRO-AIS 12 (SMIRENNIY)
1 57204U 23091AQ  26194.21074929  .00012783  00000+0  32909-3 0  9995
2 57204  97.5087 265.5836 0004838 342.9843  17.1239 15.39361361168777
SITRO-AIS 11 (SHEFFER)  
1 57208U 23091AU  26194.28182352  .00012902  00000+0  32737-3 0  9998
2 57208  97.5085 265.9197 0004735 342.1001  18.0077 15.39805059168808
SITRO-AIS 25            
1 59066U 24039R   26194.30392038  .00001819  00000+0  14378-3 0  9998
2 59066  95.3894 253.0395 0142640 236.2076 122.5499 14.93635765128626
SITRO-AIS 26            
1 59067U 24039S   26194.30889042  .00001850  00000+0  14687-3 0  9993
2 59067  95.3894 252.9351 0142981 236.8114 121.9333 14.93427966128615
SITRO-AIS 27            
1 59068U 24039T   26194.27177237  .00001478  00000+0  11688-3 0  9990
2 59068  95.3899 253.1935 0142030 235.4757 123.2993 14.93852985128637
SITRO-AIS 28            
1 59071U 24039U   26194.31562030  .00001986  00000+0  15593-3 0  9991
2 59071  95.3897 253.2724 0141951 235.1532 123.6277 14.93886500128645
GRBBETA                 
1 60237U 24128C   26194.23501685  .00001948  00000+0  14278-3 0  9993
2 60237  61.9896 124.8657 0037305 140.2081 220.1759 15.06800912110196
OOV-CUBE (TUBSAT-30)    
1 60240U 24128F   26194.27100790  .00001084  00000+0  94851-4 0  9990
2 60240  61.9937 134.6127 0041377 139.5955 220.8222 15.02869223110033
ROBUSTA-3A (MEDITERRAN*)
1 60243U 24128J   26194.26059064  .00004521  00000+0  27075-3 0  9991
2 60243  61.9865 116.0196 0038250 133.5753 226.8529 15.11970094110363
LASARSAT                
1 62391U 24247Q   26193.99643288  .00028123  00000+0  53151-3 0  9993
2 62391  44.9747 117.0092 0006976 149.4103 210.7196 15.47948222 87317
CROCUBE                 
1 62394U 24247T   26192.99415519  .00027505  00000+0  48357-3 0  9994
2 62394  44.9710 119.5598 0007111 151.4755 208.6527 15.50022679 87199
FORESAIL-1 PRIME        
1 66778U 25276DS  26194.15202083  .00002951  00000+0  14455-3 0  9997
2 66778  97.4194 266.9496 0003041  49.5627 310.5873 15.18928427 34341
KNACKSAT-2              
1 67683U 98067XZ  26194.27582286  .00036553  00000+0  40980-3 0  9997
2 67683  51.6258 163.0209 0008056 321.9354  38.1070 15.62269029 24351
